# Made by eph2tle, compiled Dec 17 2024 20:30:40
# Run at Sun Dec 22 11:14:17 2024
#
#    The following TLEs (Two-Line Elements) were generated by fitting
# a numerically-integrated ephemeris,  based on the orbit given below,
# to the SDP4/SGP4 models.  Each TLE is good for the interval between
# its epoch and the epoch of the subsequent TLE (usually one day).
# The maximum deviation between the numerically integrated ephemerides
# and the TLE-based ephemeris, in kilometers,  is given for each TLE
# as the "worst residual".
#
#    This fitting is done using the 'eph2tle' code packaged with Find_Orb.
# The code has details on how the TLEs were computed :
#
#    https://github.com/Bill-Gray/find_orb/eph2tle.cpp
#
#    Be warned:  the error given is that between the numerically
# integrated ephems and the TLE model.  There will usually be at
# least some additional difference between the ephems and the actual
# motion of the satellite,  especially if the ephemerides are based
# on a short arc.  If the following orbital elements say something
# like "[based on] 10 observations 2015 Jan. 1-13",  and the TLEs
# are for 2015 May,  the extrapolation may be tenuous at best.  If
# your application requires a specific level of accuracy,  you may
# want to contact me;  I can give you some idea as to the fit of the
# underlying data (and possibly TLEs based on newer data).
#
#   You can usually find the underlying observational data,  and the
# fitted orbit,  residuals,  ephemerides,  and sometimes some comments
# about the object,  among the pages listed at
#
#    https://www.projectpluto.com/pluto/mpecs/pseudo.htm
#
#    WARNING:  for this object,  "normal" TLEs cannot be fitted.  (This
# usually means an object with an hyperbolic or nearly-parabolic orbit.)
# For this and similar cases,   an alternative model is used,  in which
# most of the traditional TLE data is replaced by six signed 8-digit hex
# numbers.  These six numbers are a state vector,  numerically integrated
# using a simplified force model.  This is necessary for objects at L2 or
# L1,  and sometimes for objects in high orbits where the SDP4/SGP4 model
# fails.  Some documentation is in 'get_el.cpp' in the source code at
# https://www.github.com/Bill-Gray/sat_code ; look for 'hex' in that file,
# with the actual integration done in 'sdp4.cpp'.  But be aware:  it's my
# own extension,  doesn't work with other code,  and is therefore used
# only when necessary.
#
#    Also,  if you use a TLE outside the "correct" time range (between
# its MJD and that of the next TLE),  all bets are off.  I've carefully
# computed and minimized the worst error over the "correct" time frame,
# but the ephemeris may (or may not) diverge wildly outside of it.
#
# Ephem range: 60676.000000 60898.000000 1.000000
# Created Sun Dec 22 11:14:12 2024
# Ephemeris start:  1 Jan 2025  0:00:00
# Ephemeris end:   11 Aug 2025  0:00:00
# Times are all TDT
# Positions/velocities are in equatorial J2000
# Orbital elements:  2019-040A = NORAD 44432 = Spektr-RG
#    Perihelion 2024 Nov 28.647277 +/- 3.86e-5 TT = 15:32:04.7 (JD 2460643.147277)
# Epoch 2024 Nov 14.0 TT; AMR 0.018844 +/- 1.43e-7 m^2/kg   Earth MOID: 0.0092
# M 346.329302323 +/- 0.000037        (J2000 ecliptic)             Find_Orb
# n   0.933326884 +/- 7.2e-8          Peri.    8.473025 +/- 0.000050
# a   1.037003444 +/- 5.33e-8         Node    58.314932 +/- 0.000038
# e   0.03809049 +/- 3.72e-8          Incl.    0.271725 +/- 3.18e-7
# P   1.056/385.710d         H 27.48  G  0.15   U  1.7
# q 0.997503472 +/- 1.35e-8    Q 1.076503415 +/- 9.38e-8
# 187 of 234 observations 2024 Sept. 23-Dec. 20; mean residual 0".425
#
# 1 NoradU COSPAR   Epoch.epoch     dn/dt/2  d2n/dt2/6 BSTAR    T El# C
# 2 NoradU Inclina RAAscNode Eccent  ArgPeri MeanAno  MeanMotion Rev# C

# Worst residual: 0.78 km
# MJD 60676.000000 (2025 Jan  1  0:00)
2019-040A = NORAD 44432 = Spektr-RG
1 44432U 19040A   24366.99919926 -002FD2YK +00M3Y2U3 +00GPEFVLH 25489
2 44432                          -00009P4Q -00004NNF +000074UN     09

# Worst residual: 0.77 km
# MJD 60677.000000 (2025 Jan  2  0:00)
2019-040A = NORAD 44432 = Spektr-RG
1 44432U 19040A   25001.99919926 -002HRRYY +00M2WXIJ +00GR1CEZH 25489
2 44432                          -0000AE8U -00003YBE +00006HR9     07

# Worst residual: 0.78 km
# MJD 60678.000000 (2025 Jan  3  0:00)
2019-040A = NORAD 44432 = Spektr-RG
1 44432U 19040A   25002.99919926 -002KDA0D +00M21IL1 +00GSIHR2H 25483
2 44432                          -0000B9QN -00003C29 +00005SSI     09

# Worst residual: 0.80 km
# MJD 60679.000000 (2025 Jan  4  0:00)
2019-040A = NORAD 44432 = Spektr-RG
1 44432U 19040A   25003.99919926 -002N70TA +00M1AYQP +00GTTDBXH 25486
2 44432                          -0000CARS -00002TY5 +000051F0     04

# Worst residual: 0.84 km
# MJD 60680.000000 (2025 Jan  5  0:00)
2019-040A = NORAD 44432 = Spektr-RG
1 44432U 19040A   25004.99919926 -002QA7EZ +00M0O6BY +00GUXCDLH 25482
2 44432                          -0000DG6J -00002GU1 +00004778     06

# Worst residual: 0.90 km
# MJD 60681.000000 (2025 Jan  6  0:00)
2019-040A = NORAD 44432 = Spektr-RG
1 44432U 19040A   25005.99919926 -002TNPRJ +00M03VEM +00GVTOZMH 25483
2 44432                          -0000EOKS -000029B0 +000039UU     04

# Worst residual: 1.00 km
# MJD 60682.000000 (2025 Jan  7  0:00)
2019-040A = NORAD 44432 = Spektr-RG
1 44432U 19040A   25006.99919926 -002XC34S +00LZKOBI +00GWHNJ0H 25488
2 44432                          -0000FYFQ -000027ML +0000299T     00

# Worst residual: 1.10 km
# MJD 60683.000000 (2025 Jan  8  0:00)
2019-040A = NORAD 44432 = Spektr-RG
1 44432U 19040A   25007.99919926 -0031BHH0 +00LZ16MF +00GWWG5YH 25486
2 44432                          -0000H87T -00002BPW +000015IO     04

# Worst residual: 1.18 km
# MJD 60684.000000 (2025 Jan  9  0:00)
2019-040A = NORAD 44432 = Spektr-RG
1 44432U 19040A   25008.99919926 -0035LPR7 +00LYG20W +00GX1CH7H 25486
2 44432                          -0000IGH3 -00002L5W -0000015H     08

# Worst residual: 1.22 km
# MJD 60685.000000 (2025 Jan 10  0:00)
2019-040A = NORAD 44432 = Spektr-RG
1 44432U 19040A   25009.99919926 -003A69B0 +00LXS38J +00GWVOZJH 25481
2 44432                          -0000JLZ5 -00002Z87 -00001ABB     05

# Worst residual: 1.21 km
# MJD 60686.000000 (2025 Jan 11  0:00)
2019-040A = NORAD 44432 = Spektr-RG
1 44432U 19040A   25010.99919926 -003F0C3B +00LX0AHF +00GWEYJMH 25480
2 44432                          -0000KNT0 -00003GWZ -00002LE9     06

# Worst residual: 1.19 km
# MJD 60687.000000 (2025 Jan 12  0:00)
2019-040A = NORAD 44432 = Spektr-RG
1 44432U 19040A   25011.99919926 -003K2ZTK +00LW3XEV +00GVMRF8H 25481
2 44432                          -0000LLFT -00004124 -00003XQ1     07

# Worst residual: 1.20 km
# MJD 60688.000000 (2025 Jan 13  0:00)
2019-040A = NORAD 44432 = Spektr-RG
1 44432U 19040A   25012.99919926 -003PD7I1 +00LV2K59 +00GUIVYHH 25483
2 44432                          -0000MERW -00004MF9 -00005AKT     00

# Worst residual: 1.24 km
# MJD 60689.000000 (2025 Jan 14  0:00)
2019-040A = NORAD 44432 = Spektr-RG
1 44432U 19040A   25013.99919926 -003UTYZ5 +00LTW18L +00GT3ALKH 25487
2 44432                          -0000N43J -000057UK -00006N9Y     06

# Worst residual: 1.27 km
# MJD 60690.000000 (2025 Jan 15  0:00)
2019-040A = NORAD 44432 = Spektr-RG
1 44432U 19040A   25014.99919926 -0040GDYN +00LSKGJC +00GRC3ATH 25485
2 44432                          -0000NQ04 -00005SD3 -00007Z8L     09

# Worst residual: 1.26 km
# MJD 60691.000000 (2025 Jan 16  0:00)
2019-040A = NORAD 44432 = Spektr-RG
1 44432U 19040A   25015.99919926 -00467Q8V +00LR4560 +00GP9IDVH 25488
2 44432                          -0000O9A6 -00006B9F -00009A1C     02

# Worst residual: 1.19 km
# MJD 60692.000000 (2025 Jan 17  0:00)
2019-040A = NORAD 44432 = Spektr-RG
1 44432U 19040A   25016.99919926 -004C3GXU +00LPJJ3W +00GMVV5KH 25485
2 44432                          -0000OQTM -00006S4F -0000AJEQ     02

# Worst residual: 1.07 km
# MJD 60693.000000 (2025 Jan 18  0:00)
2019-040A = NORAD 44432 = Spektr-RG
1 44432U 19040A   25017.99919926 -004I3AV1 +00LNV4UH +00GK7IJIH 25480
2 44432                          -0000P7IB -000076S1 -0000BR8H     01

# Worst residual: 0.97 km
# MJD 60694.000000 (2025 Jan 19  0:00)
2019-040A = NORAD 44432 = Spektr-RG
1 44432U 19040A   25018.99919926 -004O74A0 +00LM3HFM +00GH8U0HH 25488
2 44432                          -0000PO64 -00007J99 -0000CXI8     05

# Worst residual: 0.93 km
# MJD 60695.000000 (2025 Jan 20  0:00)
2019-040A = NORAD 44432 = Spektr-RG
1 44432U 19040A   25019.99919926 -004UF097 +00LK932N +00GE06S9H 25482
2 44432                          -0000Q5JW -00007TPT -0000E2A6     02

# Worst residual: 0.97 km
# MJD 60696.000000 (2025 Jan 21  0:00)
2019-040A = NORAD 44432 = Spektr-RG
1 44432U 19040A   25020.99919926 -0050R7XK +00LICE7J +00GAHXBSH 25484
2 44432                          -0000QOBE -000082EE -0000F5O6     03

# Worst residual: 1.09 km
# MJD 60697.000000 (2025 Jan 22  0:00)
2019-040A = NORAD 44432 = Spektr-RG
1 44432U 19040A   25021.99919926 -005785VK +00LGDSY1 +00G6QD29H 25489
2 44432                          -0000R929 -000089LN -0000G7T3     09

# Worst residual: 1.21 km
# MJD 60698.000000 (2025 Jan 23  0:00)
2019-040A = NORAD 44432 = Spektr-RG
1 44432U 19040A   25022.99919926 -005DUDNL +00LEDMNC +00G2PS5IH 25489
2 44432                          -0000RWCP -00008FNT -0000H8UJ     08

# Worst residual: 1.29 km
# MJD 60699.000000 (2025 Jan 24  0:00)
2019-040A = NORAD 44432 = Spektr-RG
1 44432U 19040A   25023.99919926 -005KMJM3 +00LCC3IU +00FYGFADH 25489
2 44432                          -0000SMQD -00008KZ3 -0000I8Z9     00

# Worst residual: 1.27 km
# MJD 60700.000000 (2025 Jan 25  0:00)
2019-040A = NORAD 44432 = Spektr-RG
1 44432U 19040A   25024.99919926 -005RLGSJ +00LA9C0T +00FTYHD9H 25482
2 44432                          -0000TGQR -00008Q0R -0000J8FJ     08

